#dP2022 12 27  0  0  0.00000000      96 __u+U IGS14 FIT  IAC
## 2242 172800.00000000   900.00000000 59940 0.0000000000000
+  118   C06C07C08C09C10C11C12C13C14C16C19C20C21C22C23C24C25
+        C26C27C28C29C30C32C33C34C36C37C38C39C40C41C42C43C44
+        C45C46E01E02E03E04E05E07E08E09E10E11E12E13E14E15E18
+        E19E21E24E25E26E27E30E31E33E34E36G01G02G03G04G05G06
+        G07G08G09G10G11G12G13G14G15G16G17G18G19G20G21G22G23
+        G24G25G26G27G29G30G31G32J02J03J04R01R02R03R04R05R07
+        R08R09R11R12R13R14R15R16R17R18R19R20R21R22R24R25  0
++         7  8  8  7  7  8  8  8  8  7  6  6  7  6  6  6  6
++         7  6  6  6  6  6  7  7  6  6  7  7  6  6  7  6  7
++         6  6  4  4  4  4  4  5  5  4  5  4  5  4  5  4  5
++         4  4  4  4  4  5  5  4  4  5  4  4  4  5  4  4  4
++         3  4  4  3  4  3  3  4  3  4  4  4  4  4  3  4  3
++         3  3  4  4  4  3  4  4  9 10 10  8  7  7  7  7  7
++         6  7  7  7  8  7  7  7  7  7  8  8  7 11  7  8  0
%c M  cc GPS ccc cccc cccc cccc cccc ccccc ccccc ccccc ccccc
%c cc cc ccc ccc cccc cccc cccc cccc ccccc ccccc ccccc ccccc
%f  1.2500000  1.025000000  0.00000000000  0.000000000000000
%f  0.0000000  0.000000000  0.00000000000  0.000000000000000
%i    0    0    0    0      0      0      0      0         0
%i    0    0    0    0      0      0      0      0         0
/* INFORMATION & ANALYSIS CENTER (IAC)            FINAL DATA
/* S/V CLOCKS ARE ALIGNED TO GNSS TIME                      
/* G:C1WC2W R:C1PC2P E:C1XC5X C:C2IC6I J:C1CC2S             
/* PCV:IGS20_2239 OL/AL:FES2004  NONE     YN ORB:CoN CLK:CoN
*  2022 12 27 18 15  0.00000000
PC06 -15621.915412  26201.349105 -29208.465621    211.508373
PC07  -8148.025049  41165.624512  -3271.533985    100.682851
PC08   1631.288347  26566.863031  32775.335500    525.468200
PC09  -7971.858804  25541.913359 -32321.088182   -772.995192
PC10  -3626.619503  41699.186104   1839.974855     43.606677
PC11 -24577.813719    947.382025 -13085.704889   -211.626723
PC12 -11082.624794 -11611.464687 -22780.718491    367.158076
PC13   7062.836459  29909.581742  29155.604293    168.766293
PC14 -15506.664925  -3436.112826  22962.584232    307.656117
PC16 -19789.694261  25394.936425 -27201.783673     93.727905
PC19  15611.409766  -7960.754771 -21698.241999   -900.487696
PC20  13367.348219  12272.513555 -21184.817684    790.253666
PC21  -2831.183843 -26649.837506   7818.622978   -921.935088
PC22   9006.489712 -24571.593120  -9716.602414   -717.191305
PC23  -8843.464448  13732.460303 -22629.813957   -870.845538
PC24 -22634.235619 -16292.743872    107.472794   -618.639351
PC25 -22165.782571   -329.715492 -16948.223833     46.136730
PC26 -11269.857158 -20659.527968  14950.652591    -55.911363
PC27   2051.302747  16236.479609  22589.537160     72.652802
PC28 -16300.777006  17822.759422  13984.224761     52.121136
PC29  25908.846681  -9534.963362   4060.521662     59.456940
PC30  19539.307573   5325.273679  19187.126889      1.254626
PC32   2965.534014  26653.801405  -7699.718014   -668.705033
PC33 -15614.408285   7905.518186  21735.624877   -887.810926
PC34 -20438.453666  -4441.124543 -18492.152803     70.529270
PC36  22465.010826   1442.422191  16515.887852   -736.877949
PC37   9541.182072  20852.343351 -15916.625985   -866.687782
PC38  -6258.523442  24086.538556  34103.745832     47.902383
PC39 -22984.513665  26098.371591 -23959.146074     -1.202916
PC40 -14875.317822  38665.629297  -7305.231715    -11.152402
PC41  -9287.135990  24241.807660  10293.869612   -427.231403
PC42 -12998.533883 -13575.180582  20673.059935   -932.319216
PC43 -26020.962070   8906.856166  -4802.929156     32.294756
PC44  -2531.251645 -16347.096118 -22478.270939    158.542009
PC45   8432.524565 -13860.893724  22696.994002    -40.072802
PC46  23305.256231  15307.995804   1623.918913    -22.429643
PE01  13415.873430  26240.830049   2839.381930   -585.194189
PE02 -13594.770486 -26087.496751  -3167.641450     11.135253
PE03  -6826.924873 -17695.339629  22718.825036   -634.036727
PE04  19663.897852   -481.075707 -22117.450037    -23.316957
PE05  10325.641308 -25884.444797   9968.375241   -110.943239
PE07 -21216.605066  18832.751619   8442.352323    -10.535564
PE08 -19526.415715    534.378071  22233.074416     -9.721394
PE09  21191.086424 -18769.093200  -8666.651710   -779.047141
PE10  28849.329779  -1210.309317  -6529.749209   -500.835860
PE11  23665.769587  -7833.531531 -15954.083119    196.063347
PE12  28996.533617   5101.046466   2988.125712   -357.329794
PE13 -24287.711789   7305.718003  15273.985678    430.216062
PE14 -19419.235030  -5804.468786 -21636.294935     96.636993
PE15 -28951.661195  -5213.190682  -3290.956725    698.111566
PE18  23504.835115 -10845.535543  10891.485206   -578.542614
PE19   4384.965621  19546.232488 -21794.896898  -3636.148951
PE21    919.234221  26089.404702 -13966.647194   -502.807465
PE24  13735.421511 -10101.411007  24178.212197  -1025.249556
PE25   -665.777562 -25945.118195  14222.965199   -595.887121
PE26  -4508.955854  15730.375342  24675.331877  -1868.895080
PE27 -13132.524727  11113.370259 -24089.135252   -473.404181
PE30 -19331.594159 -11040.400593 -19508.179551  -1112.384695
PE31  19327.353728  10282.881099  19932.267682   -511.765978
PE33  16476.689691  14582.332676  19807.423413   -455.143074
PE34 -16669.388263 -14500.500668 -19692.804570    -21.795875
PE36   5446.272170 -15400.737633 -24675.082303   -481.654808
PG01 -17362.713055 -13709.172694 -15263.157195    232.041906
PG02  19868.675091  11560.830503  13747.266321   -630.723840
PG03 -12535.675432 -22587.603541   6295.347834   -374.657301
PG04  -8769.034716 -12721.702062  21597.377025    -60.426781
PG05   4649.544052  24981.520912   7346.533887   -109.706254
PG06 -19994.845288   7000.507449  16140.983762    548.290731
PG07 -25833.144992  -6848.344013   2765.787584    268.136945
PG08    928.210961 -20158.436424 -17113.882243   -100.726142
PG09 -17161.097652  -1496.185454  20149.879739   -246.500531
PG10  13992.742934  -4781.346047 -21897.767587    -17.911485
PG11  -7846.461458  13469.012360  21510.558616    -65.656376
PG12  10309.893782  23944.032547   5091.629707   -321.001801
PG13  -9755.178076  20876.073011 -13216.712112    449.285558
PG14 -15432.848978   2170.270327 -21508.693571    -60.699113
PG15   2170.844403  20354.574617 -17226.880991     -0.463616
PG16   1140.100253 -24069.194418  10338.468822   -525.346881
PG17 -21176.318508  10590.000416 -11684.462769    689.098113
PG18  26178.960441   4893.969282   -614.961074    -75.591602
PG19 -19974.485197  17206.134551  -1872.021957    256.198464
PG20  -3310.057203  19905.365001  17406.803567    460.837864
PG21 -10215.484962 -14583.630008 -19350.512727    152.962878
PG22  17794.194611 -19535.273104   1860.957291    393.527534
PG23  16901.516245   7407.276458 -19156.594286      0.942537
PG24  14032.181279  14572.841146 -17760.394630     -3.562495
PG25  15915.472482  16874.559786  12882.922788    405.965642
PG26   8367.091606 -16206.878558  19088.713099    239.271188
PG27  10961.396379 -22354.660028  -8857.423765    142.122227
PG29  15206.488723   4906.449841  21187.130419   -576.798694
PG30 -24904.057362   2090.416196  -9271.445006   -534.599357
PG31  19201.005837  -8030.303732  16593.689951   -204.551715
PG32  20366.743456 -13671.484411  -9768.598997   -344.259814
PJ02 -20386.126031  23671.532133 -23706.466322     -0.415306
PJ03 -29097.763227  27432.534074  18765.379812     -7.623658
PJ04 -27925.184361  28389.295709  19843.083133    116.525973
PR01   7401.500128  11998.038123 -21259.219190     20.266808
PR02  12472.664969  -7899.504275 -20740.854633    -23.348551
PR03  10098.827500 -22068.956948  -7705.143181     69.838448
PR04   2381.599673 -23618.157747   9338.423023    170.170298
PR05  -6695.661763 -12333.736572  21300.892743    105.245577
PR07  -9918.090265  22462.128455   7050.996444     46.904526
PR08  -2207.492781  23633.875371  -9334.444985    -68.717768
PR09 -17031.195660  -3821.500409 -18618.511576     95.341544
PR11   9095.453927  18873.665416 -14536.116265     11.624591
PR12  18901.000449  16742.986515   3719.440642     23.921729
PR13  17512.468367   5472.617933  17704.210073    -30.362862
PR14   4972.102615 -10609.984744  22664.812873     24.150912
PR15  -9646.666519 -19271.847640  13658.424101     92.092119
PR16 -18948.583808 -16768.963474  -3337.162738      9.204056
PR17  17604.611995 -11184.985683 -14696.911678    590.617416
PR18   1190.192046 -10898.226324 -23005.594187     58.900359
PR19 -14517.458687  -6105.601413 -20057.450480   -216.086072
PR20 -25077.618823   3816.098843  -2872.891160    -84.749547
PR21 -16293.011717  11303.178603  16036.019959   -360.811412
PR22   -682.706218  11151.079858  22963.302910     64.241968
PR24  24959.200248  -4807.850669   2255.586074    135.589211
PR25 -18324.826445  10437.953531  14344.971246     50.018106
EOF
